format  = 'OEF1.1'       ! file format
rectype = 'ML'           ! record type (1L/ML)
refsys  = ECLM J2000     ! default reference system
END_OF_HEADER
433
! Equinoctial elements: a, e*sin(LP), e*cos(LP), tan(i/2)*sin(LN), tan(i/2)*cos(LN), mean long.
 EQU   1.45793048226100E+00   0.186376803860194  -0.121587542263526   -0.078249732875227    0.053470843995976 154.6476156166299
 MJD     56000.000000000 TDT
 MAG  10.755  0.460
! RMS    1.81235E-10   1.69091E-08   2.86886E-08   1.78758E-08   1.84213E-08   2.11779E-06
! EIG   1.26658E-10   1.09376E-08   1.20624E-08   2.13780E-08   2.37006E-08   4.30140E-08
! WEA   0.00161   0.08307   0.55193  -0.04334  -0.01448  -0.82848
 COV   3.284610879020000E-20 -9.134895550695161E-19  1.327102845864913E-18
 COV  -4.305286919045037E-19  2.873419939302182E-19 -1.596048765890403E-16
 COV   2.859175764505015E-16 -8.156654460561179E-17  1.697381830820719E-17
 COV  -2.112397908106688E-17 -1.212959012805872E-14  8.230334663228586E-16
 COV  -5.732523223350038E-17  1.685285086741795E-17 -3.952082178225709E-14
 COV   3.195442751219649E-16 -1.851929180574426E-16  2.682413091459429E-15
 COV   3.393457847087219E-16  2.589966443415636E-15  4.485021883785134E-12
 NOR   6.232929502806460E+19  4.811430305438627E+17  2.078632302618925E+17
 NOR   1.095383613364336E+16 -6.826237406549446E+16  5.383801471426114E+15
 NOR   9.342743438602104E+15  3.833223914386764E+15 -2.239277424472191E+14
 NOR  -7.239389987596816E+14  7.671851667684798E+13  3.705641366972311E+15
 NOR   3.103095555356333E+13 -4.913098484639568E+14  5.068217196848779E+13
 NOR   4.682426354097650E+15  2.562838424949113E+15 -4.222803136534689E+12
 NOR   4.480585823895512E+15 -1.283655238413374E+13  1.078572164314968E+12
